{
  "type": "FeatureCollection",
  "generator": "overpass-turbo",
  "copyright": "The data included in this document is from www.openstreetmap.org. The data is made available under ODbL.",
  "timestamp": "2026-07-27T18:45:02Z",
  "features": [
    {
      "type": "Feature",
      "properties": {
        "@id": "relation/5295537",
        "DIST_CODE": "87",
        "DIST_NAME": "Satkhira",
        "DIV_CODE": "5",
        "DIV_NAME": "Khulna Division",
        "GEOCODE": "48786",
        "RECID": "304",
        "admin_level": "6",
        "boundary": "administrative",
        "name": "শ্যামনগর উপজেলা",
        "name:en": "Shyamnagar",
        "type": "boundary",
        "wikidata": "Q3347673",
        "wikipedia": "bn:শ্যামনগর উপজেলা"
      },
      "geometry": {
        "type": "Polygon",
        "coordinates": [
          [
            [
              89.0064148,
              22.3181731
            ],
            [
              89.0077215,
              22.3170883
            ],
            [
              89.0089295,
              22.3160035
            ],
            [
              89.0102115,
              22.3148818
            ],
            [
              89.0108525,
              22.3144133
            ],
            [
              89.0116168,
              22.3136244
            ],
            [
              89.0123071,
              22.3125396
            ],
            [
              89.0128495,
              22.3114548
            ],
            [
              89.0137716,
              22.3099879
            ],
            [
              89.0143386,
              22.3090017
            ],
            [
              89.0151522,
              22.307843
            ],
            [
              89.0161877,
              22.3067336
            ],
            [
              89.0170753,
              22.3055748
            ],
            [
              89.0179628,
              22.3046133
            ],
            [
              89.0190723,
              22.3035778
            ],
            [
              89.0202803,
              22.3024067
            ],
            [
              89.0211679,
              22.3016178
            ],
            [
              89.0221294,
              22.3008042
            ],
            [
              89.022795,
              22.3002125
            ],
            [
              89.0233867,
              22.2994975
            ],
            [
              89.0240524,
              22.2987086
            ],
            [
              89.024225,
              22.297969
            ],
            [
              89.0242743,
              22.297328
            ],
            [
              89.0243236,
              22.2964651
            ],
            [
              89.0243729,
              22.2958241
            ],
            [
              89.024225,
              22.2950105
            ],
            [
              89.0238552,
              22.2944927
            ],
            [
              89.0232635,
              22.2941229
            ],
            [
              89.0228937,
              22.2939503
            ],
            [
              89.0221294,
              22.2939257
            ],
            [
              89.0210939,
              22.293901
            ],
            [
              89.0200584,
              22.293975
            ],
            [
              89.0191216,
              22.2942462
            ],
            [
              89.0177656,
              22.2947146
            ],
            [
              89.0166315,
              22.2951091
            ],
            [
              89.0155467,
              22.2955282
            ],
            [
              89.0146296,
              22.2958487
            ],
            [
              89.0129284,
              22.2966623
            ],
            [
              89.0112519,
              22.2972294
            ],
            [
              89.0099206,
              22.2975006
            ],
            [
              89.0086632,
              22.2976978
            ],
            [
              89.0075045,
              22.2977964
            ],
            [
              89.0063951,
              22.2977964
            ],
            [
              89.0051377,
              22.2978211
            ],
            [
              89.0038557,
              22.2976485
            ],
            [
              89.0023468,
              22.2974759
            ],
            [
              89.0010402,
              22.297254
            ],
            [
              89.0000293,
              22.2969828
            ],
            [
              88.9987966,
              22.296613
            ],
            [
              88.99722,
              22.2958069
            ],
            [
              88.9961497,
              22.2951647
            ],
            [
              88.9954647,
              22.2943513
            ],
            [
              88.9951222,
              22.2934094
            ],
            [
              88.9949937,
              22.2925103
            ],
            [
              88.9950366,
              22.2915256
            ],
            [
              88.9950366,
              22.2904553
            ],
            [
              88.995165,
              22.2889996
            ],
            [
              88.9954647,
              22.2877581
            ],
            [
              88.9956788,
              22.286859
            ],
            [
              88.9959784,
              22.2857459
            ],
            [
              88.9966635,
              22.2850608
            ],
            [
              88.9971772,
              22.2845043
            ],
            [
              88.9987227,
              22.2828929
            ],
            [
              89.0001033,
              22.2817342
            ],
            [
              89.0012127,
              22.2808713
            ],
            [
              89.0023222,
              22.2800084
            ],
            [
              89.0038014,
              22.2791702
            ],
            [
              89.0050095,
              22.2782333
            ],
            [
              89.0068536,
              22.2770622
            ],
            [
              89.0078398,
              22.2764212
            ],
            [
              89.0085794,
              22.2759281
            ],
            [
              89.0096149,
              22.2752378
            ],
            [
              89.0108476,
              22.2744242
            ],
            [
              89.0125734,
              22.273512
            ],
            [
              89.0141266,
              22.2727477
            ],
            [
              89.0154826,
              22.2719835
            ],
            [
              89.0159855,
              22.2717862
            ],
            [
              89.0168978,
              22.2712685
            ],
            [
              89.0177853,
              22.2707261
            ],
            [
              89.0186975,
              22.2699372
            ],
            [
              89.0191166,
              22.2691975
            ],
            [
              89.0194125,
              22.2684826
            ],
            [
              89.0194618,
              22.2679402
            ],
            [
              89.0194618,
              22.2672745
            ],
            [
              89.0193878,
              22.2664363
            ],
            [
              89.0191906,
              22.2658692
            ],
            [
              89.0185989,
              22.2652035
            ],
            [
              89.0183497,
              22.2642776
            ],
            [
              89.0178202,
              22.2637481
            ],
            [
              89.0174084,
              22.2632186
            ],
            [
              89.0168789,
              22.2626891
            ],
            [
              89.0163494,
              22.2621596
            ],
            [
              89.0158787,
              22.2614536
            ],
            [
              89.0151139,
              22.2605711
            ],
            [
              89.0145255,
              22.2597474
            ],
            [
              89.0138195,
              22.2591003
            ],
            [
              89.0135253,
              22.2582766
            ],
            [
              89.0131723,
              22.2573941
            ],
            [
              89.0132312,
              22.2560409
            ],
            [
              89.0138783,
              22.2550996
            ],
            [
              89.0145844,
              22.2543936
            ],
            [
              89.0151227,
              22.253801
            ],
            [
              89.0165847,
              22.2533346
            ],
            [
              89.0175849,
              22.2535699
            ],
            [
              89.018585,
              22.2539229
            ],
            [
              89.0200559,
              22.2546289
            ],
            [
              89.0215856,
              22.2553349
            ],
            [
              89.0227622,
              22.2561586
            ],
            [
              89.0237624,
              22.2565704
            ],
            [
              89.0251156,
              22.2574529
            ],
            [
              89.026222,
              22.2586332
            ],
            [
              89.0271835,
              22.2591016
            ],
            [
              89.0278985,
              22.2594221
            ],
            [
              89.0285641,
              22.2596933
            ],
            [
              89.0295996,
              22.2599892
            ],
            [
              89.0301173,
              22.2600385
            ],
            [
              89.0309802,
              22.2600138
            ],
            [
              89.0315719,
              22.2598166
            ],
            [
              89.0323855,
              22.2592249
            ],
            [
              89.0331498,
              22.2585099
            ],
            [
              89.0335689,
              22.2572033
            ],
            [
              89.0339387,
              22.2561185
            ],
            [
              89.0342099,
              22.2549104
            ],
            [
              89.0344072,
              22.2534558
            ],
            [
              89.0347523,
              22.2514958
            ],
            [
              89.0348509,
              22.2508795
            ],
            [
              89.035535,
              22.248376
            ],
            [
              89.0357788,
              22.245938
            ],
            [
              89.0359007,
              22.2433781
            ],
            [
              89.0362055,
              22.2411229
            ],
            [
              89.0366321,
              22.2379535
            ],
            [
              89.0369369,
              22.2360031
            ],
            [
              89.0373635,
              22.233687
            ],
            [
              89.0380949,
              22.2309442
            ],
            [
              89.0390092,
              22.2292986
            ],
            [
              89.0396187,
              22.2282015
            ],
            [
              89.0405329,
              22.2267387
            ],
            [
              89.0424224,
              22.2244226
            ],
            [
              89.0433367,
              22.2233255
            ],
            [
              89.0444947,
              22.2221065
            ],
            [
              89.0460185,
              22.2207656
            ],
            [
              89.0472375,
              22.2199123
            ],
            [
              89.0485784,
              22.2188761
            ],
            [
              89.050224,
              22.2172914
            ],
            [
              89.0519306,
              22.215402
            ],
            [
              89.053881,
              22.2135125
            ],
            [
              89.056991,
              22.2116054
            ],
            [
              89.0598744,
              22.2088181
            ],
            [
              89.062085,
              22.2067997
            ],
            [
              89.0635267,
              22.2052618
            ],
            [
              89.0649685,
              22.2036279
            ],
            [
              89.0663141,
              22.2023784
            ],
            [
              89.0675636,
              22.2011061
            ],
            [
              89.0685783,
              22.1998926
            ],
            [
              89.0695287,
              22.1986895
            ],
            [
              89.070746,
              22.1972376
            ],
            [
              89.0714841,
              22.1960575
            ],
            [
              89.0720286,
              22.1948308
            ],
            [
              89.0723603,
              22.1931409
            ],
            [
              89.072114,
              22.1913051
            ],
            [
              89.0717926,
              22.1896913
            ],
            [
              89.0713223,
              22.1885345
            ],
            [
              89.0706214,
              22.1871238
            ],
            [
              89.0700084,
              22.1857193
            ],
            [
              89.0686671,
              22.183427
            ],
            [
              89.0677558,
              22.1817138
            ],
            [
              89.0668908,
              22.1802721
            ],
            [
              89.0660257,
              22.1788304
            ],
            [
              89.0652246,
              22.1774581
            ],
            [
              89.0645094,
              22.1762154
            ],
            [
              89.0639112,
              22.1748897
            ],
            [
              89.0636324,
              22.1739285
            ],
            [
              89.063401,
              22.1728655
            ],
            [
              89.0632317,
              22.1712958
            ],
            [
              89.0631844,
              22.1696317
            ],
            [
              89.0632724,
              22.1681315
            ],
            [
              89.0635267,
              22.1666238
            ],
            [
              89.0640176,
              22.1647512
            ],
            [
              89.0644347,
              22.1633194
            ],
            [
              89.0649685,
              22.1615297
            ],
            [
              89.0654061,
              22.1602469
            ],
            [
              89.0659291,
              22.1588452
            ],
            [
              89.066644,
              22.1571119
            ],
            [
              89.0673494,
              22.1554879
            ],
            [
              89.0680433,
              22.1539334
            ],
            [
              89.0686947,
              22.1527138
            ],
            [
              89.0692185,
              22.1518023
            ],
            [
              89.0700625,
              22.1504766
            ],
            [
              89.0707353,
              22.1496115
            ],
            [
              89.071493,
              22.1487116
            ],
            [
              89.0724684,
              22.1480301
            ],
            [
              89.0733214,
              22.1476854
            ],
            [
              89.0743382,
              22.1475222
            ],
            [
              89.0755248,
              22.1475178
            ],
            [
              89.0766529,
              22.1477045
            ],
            [
              89.0778914,
              22.148264
            ],
            [
              89.0790618,
              22.1490021
            ],
            [
              89.0809675,
              22.1506821
            ],
            [
              89.0824259,
              22.1523317
            ],
            [
              89.0839745,
              22.154413
            ],
            [
              89.0850816,
              22.1559405
            ],
            [
              89.0862824,
              22.1572147
            ],
            [
              89.087169,
              22.1581223
            ],
            [
              89.0881594,
              22.1590102
            ],
            [
              89.0891731,
              22.1596111
            ],
            [
              89.0902437,
              22.1600478
            ],
            [
              89.0916921,
              22.1603059
            ],
            [
              89.0929929,
              22.1602017
            ],
            [
              89.0942205,
              22.1600048
            ],
            [
              89.0953994,
              22.1596056
            ],
            [
              89.0971835,
              22.1583078
            ],
            [
              89.0977525,
              22.1572396
            ],
            [
              89.0983433,
              22.1552999
            ],
            [
              89.0984997,
              22.153546
            ],
            [
              89.0982151,
              22.1516043
            ],
            [
              89.0973583,
              22.1497108
            ],
            [
              89.0963782,
              22.1482591
            ],
            [
              89.0950262,
              22.146742
            ],
            [
              89.0935669,
              22.1453423
            ],
            [
              89.0925308,
              22.1443342
            ],
            [
              89.0915358,
              22.1435361
            ],
            [
              89.0903318,
              22.1425977
            ],
            [
              89.0892313,
              22.1419118
            ],
            [
              89.0880143,
              22.1411536
            ],
            [
              89.0868069,
              22.1404298
            ],
            [
              89.0851482,
              22.1393706
            ],
            [
              89.083872,
              22.1386319
            ],
            [
              89.082158,
              22.1375227
            ],
            [
              89.0798613,
              22.1361144
            ],
            [
              89.0786266,
              22.1352688
            ],
            [
              89.0770802,
              22.1341069
            ],
            [
              89.0755558,
              22.1330173
            ],
            [
              89.0738012,
              22.1318288
            ],
            [
              89.072079,
              22.1305772
            ],
            [
              89.0703674,
              22.1294801
            ],
            [
              89.0679765,
              22.1278213
            ],
            [
              89.0663976,
              22.12681
            ],
            [
              89.0651462,
              22.125892
            ],
            [
              89.063861,
              22.1249581
            ],
            [
              89.0618386,
              22.1235429
            ],
            [
              89.0604879,
              22.1226435
            ],
            [
              89.0588171,
              22.121484
            ],
            [
              89.0570123,
              22.1201936
            ],
            [
              89.0553995,
              22.1189626
            ],
            [
              89.0534401,
              22.1173592
            ],
            [
              89.0518835,
              22.11598
            ],
            [
              89.0497113,
              22.1138024
            ],
            [
              89.0479916,
              22.1119982
            ],
            [
              89.0469494,
              22.11078
            ],
            [
              89.0452905,
              22.108842
            ],
            [
              89.0442509,
              22.1073062
            ],
            [
              89.0431229,
              22.105363
            ],
            [
              89.0423029,
              22.1036605
            ],
            [
              89.0414791,
              22.1016867
            ],
            [
              89.0408509,
              22.0995496
            ],
            [
              89.0405374,
              22.0978596
            ],
            [
              89.0403706,
              22.0964291
            ],
            [
              89.0402512,
              22.0944064
            ],
            [
              89.0403024,
              22.0925372
            ],
            [
              89.0404673,
              22.0909275
            ],
            [
              89.0406305,
              22.0893474
            ],
            [
              89.0408441,
              22.0875784
            ],
            [
              89.0410731,
              22.0861912
            ],
            [
              89.0414025,
              22.0845106
            ],
            [
              89.0416926,
              22.0829772
            ],
            [
              89.0421908,
              22.0803366
            ],
            [
              89.0428003,
              22.0775938
            ],
            [
              89.0433362,
              22.0751746
            ],
            [
              89.0438487,
              22.0732469
            ],
            [
              89.0449868,
              22.0694487
            ],
            [
              89.0460885,
              22.0665475
            ],
            [
              89.0468804,
              22.0647868
            ],
            [
              89.047666,
              22.062932
            ],
            [
              89.0483339,
              22.0615575
            ],
            [
              89.0489857,
              22.0600372
            ],
            [
              89.0499611,
              22.0579211
            ],
            [
              89.0507177,
              22.0563282
            ],
            [
              89.051629,
              22.0545045
            ],
            [
              89.0527408,
              22.0524606
            ],
            [
              89.0542367,
              22.0501517
            ],
            [
              89.0560326,
              22.0474368
            ],
            [
              89.0578918,
              22.0449136
            ],
            [
              89.0597,
              22.0425406
            ],
            [
              89.0613943,
              22.0401819
            ],
            [
              89.062975,
              22.0381417
            ],
            [
              89.0644093,
              22.0362274
            ],
            [
              89.065404,
              22.0348822
            ],
            [
              89.0664096,
              22.0335703
            ],
            [
              89.0677088,
              22.0319034
            ],
            [
              89.0689414,
              22.0302799
            ],
            [
              89.0701767,
              22.0285866
            ],
            [
              89.071655,
              22.0267634
            ],
            [
              89.0724469,
              22.0257695
            ],
            [
              89.0732178,
              22.0246985
            ],
            [
              89.0742505,
              22.0233178
            ],
            [
              89.0750429,
              22.0221597
            ],
            [
              89.0758962,
              22.0207579
            ],
            [
              89.0766885,
              22.0192951
            ],
            [
              89.077298,
              22.0179237
            ],
            [
              89.0779685,
              22.0162171
            ],
            [
              89.0788218,
              22.0141186
            ],
            [
              89.0793622,
              22.0127109
            ],
            [
              89.0800286,
              22.0108364
            ],
            [
              89.0805284,
              22.0094872
            ],
            [
              89.081049,
              22.0081569
            ],
            [
              89.0815763,
              22.0067398
            ],
            [
              89.0825339,
              22.0041356
            ],
            [
              89.082885,
              22.0031969
            ],
            [
              89.0835244,
              22.000754
            ],
            [
              89.0842503,
              21.9978239
            ],
            [
              89.084675,
              21.9961078
            ],
            [
              89.0849842,
              21.9946461
            ],
            [
              89.0850127,
              21.9926641
            ],
            [
              89.0850106,
              21.9915289
            ],
            [
              89.0850338,
              21.9899125
            ],
            [
              89.0850429,
              21.9874139
            ],
            [
              89.0849453,
              21.9851395
            ],
            [
              89.084798,
              21.9830899
            ],
            [
              89.0847185,
              21.9816147
            ],
            [
              89.0845685,
              21.9798595
            ],
            [
              89.0844812,
              21.9779821
            ],
            [
              89.0842202,
              21.9748682
            ],
            [
              89.083996,
              21.9730544
            ],
            [
              89.0837447,
              21.9712905
            ],
            [
              89.083427,
              21.9685529
            ],
            [
              89.0831864,
              21.9668199
            ],
            [
              89.0829602,
              21.9651258
            ],
            [
              89.0828065,
              21.9636789
            ],
            [
              89.0825603,
              21.9621056
            ],
            [
              89.0823142,
              21.9606031
            ],
            [
              89.081947,
              21.9587161
            ],
            [
              89.0816757,
              21.9571098
            ],
            [
              89.0814284,
              21.9558558
            ],
            [
              89.0810553,
              21.9541359
            ],
            [
              89.080679,
              21.9524771
            ],
            [
              89.0803668,
              21.9512114
            ],
            [
              89.079586,
              21.9481202
            ],
            [
              89.0790849,
              21.946106
            ],
            [
              89.0786687,
              21.9444155
            ],
            [
              89.0779692,
              21.9412631
            ],
            [
              89.0774619,
              21.9394313
            ],
            [
              89.0768653,
              21.9373534
            ],
            [
              89.0764854,
              21.936291
            ],
            [
              89.0754869,
              21.9338328
            ],
            [
              89.074855,
              21.9323623
            ],
            [
              89.0743129,
              21.931012
            ],
            [
              89.0736815,
              21.9295606
            ],
            [
              89.0725283,
              21.928462
            ],
            [
              89.0714726,
              21.9279127
            ],
            [
              89.0700223,
              21.9273446
            ],
            [
              89.0685813,
              21.9269438
            ],
            [
              89.066813,
              21.9266085
            ],
            [
              89.0650562,
              21.9263342
            ],
            [
              89.0636053,
              21.9261588
            ],
            [
              89.0617584,
              21.9261588
            ],
            [
              89.0601059,
              21.9263046
            ],
            [
              89.0586965,
              21.9265476
            ],
            [
              89.0567524,
              21.9268878
            ],
            [
              89.0549055,
              21.9270297
            ],
            [
              89.0531073,
              21.9270822
            ],
            [
              89.0509971,
              21.9270034
            ],
            [
              89.0487959,
              21.9268799
            ],
            [
              89.0468376,
              21.9266934
            ],
            [
              89.043659,
              21.9262074
            ],
            [
              89.0418608,
              21.9259644
            ],
            [
              89.0393821,
              21.9254613
            ],
            [
              89.0381184,
              21.9251382
            ],
            [
              89.0364517,
              21.9246429
            ],
            [
              89.034293,
              21.9239284
            ],
            [
              89.0327378,
              21.9233412
            ],
            [
              89.0312858,
              21.9227462
            ],
            [
              89.0300283,
              21.921954
            ],
            [
              89.0290024,
              21.9210766
            ],
            [
              89.0281781,
              21.9201151
            ],
            [
              89.0277628,
              21.919524
            ],
            [
              89.0270177,
              21.9181881
            ],
            [
              89.0265133,
              21.9165225
            ],
            [
              89.0259994,
              21.9150513
            ],
            [
              89.025655,
              21.913829
            ],
            [
              89.0253652,
              21.912769
            ],
            [
              89.0249278,
              21.9109221
            ],
            [
              89.024304,
              21.9084434
            ],
            [
              89.0239049,
              21.9067384
            ],
            [
              89.0237449,
              21.9057926
            ],
            [
              89.0236416,
              21.9046708
            ],
            [
              89.0236156,
              21.9029028
            ],
            [
              89.0236803,
              21.9013606
            ],
            [
              89.0236439,
              21.8998316
            ],
            [
              89.0235731,
              21.8979809
            ],
            [
              89.0234698,
              21.8961228
            ],
            [
              89.0233523,
              21.89436
            ],
            [
              89.0232631,
              21.8928179
            ],
            [
              89.0232103,
              21.8911956
            ],
            [
              89.0233306,
              21.8899858
            ],
            [
              89.0235868,
              21.8887892
            ],
            [
              89.0240105,
              21.8875189
            ],
            [
              89.0246971,
              21.8862014
            ],
            [
              89.0255111,
              21.8850415
            ],
            [
              89.0274551,
              21.8829031
            ],
            [
              89.0286107,
              21.8816223
            ],
            [
              89.030031,
              21.8800598
            ],
            [
              89.0316835,
              21.8786504
            ],
            [
              89.0345996,
              21.8761717
            ],
            [
              89.0367575,
              21.873936
            ],
            [
              89.038268,
              21.8723873
            ],
            [
              89.0403055,
              21.8700478
            ],
            [
              89.0415691,
              21.8684926
            ],
            [
              89.042541,
              21.8671015
            ],
            [
              89.0431244,
              21.8659653
            ],
            [
              89.0434801,
              21.8647988
            ],
            [
              89.0438048,
              21.8635838
            ],
            [
              89.044145,
              21.8611537
            ],
            [
              89.0442423,
              21.8587722
            ],
            [
              89.0442423,
              21.854641
            ],
            [
              89.04434,
              21.8516277
            ],
            [
              89.0443167,
              21.848314
            ],
            [
              89.0443154,
              21.8447947
            ],
            [
              89.0442909,
              21.8416886
            ],
            [
              89.044145,
              21.8395987
            ],
            [
              89.0438216,
              21.8371016
            ],
            [
              89.0433674,
              21.8346413
            ],
            [
              89.0427356,
              21.832357
            ],
            [
              89.0420552,
              21.8297811
            ],
            [
              89.0411803,
              21.8268164
            ],
            [
              89.0404999,
              21.8248237
            ],
            [
              89.0392849,
              21.8212029
            ],
            [
              89.037924,
              21.8175577
            ],
            [
              89.0365683,
              21.8142988
            ],
            [
              89.0352153,
              21.8111823
            ],
            [
              89.0336956,
              21.8076915
            ],
            [
              89.0324259,
              21.804736
            ],
            [
              89.0315592,
              21.8026238
            ],
            [
              89.0308222,
              21.8006231
            ],
            [
              89.0302838,
              21.798846
            ],
            [
              89.0298737,
              21.7966188
            ],
            [
              89.0294987,
              21.7945403
            ],
            [
              89.0294521,
              21.7917494
            ],
            [
              89.0294423,
              21.7911558
            ],
            [
              89.0296968,
              21.7881995
            ],
            [
              89.0306942,
              21.783239
            ],
            [
              89.0312482,
              21.7811352
            ],
            [
              89.0322983,
              21.7787588
            ],
            [
              89.0357719,
              21.7732499
            ],
            [
              89.0527587,
              21.7511321
            ],
            [
              89.0572044,
              21.7449594
            ],
            [
              89.0679522,
              21.7306608
            ],
            [
              89.0836141,
              21.7062112
            ],
            [
              89.0993015,
              21.6784738
            ],
            [
              89.1126756,
              21.6529427
            ],
            [
              89.1265441,
              21.6286704
            ],
            [
              89.1293794,
              21.6244925
            ],
            [
              89.1399043,
              21.6083933
            ],
            [
              89.166009,
              21.5689759
            ],
            [
              89.1839606,
              21.4454219
            ],
            [
              89.185298,
              21.436213
            ],
            [
              89.1885859,
              21.4356991
            ],
            [
              89.1983594,
              21.4341712
            ],
            [
              89.2081329,
              21.4326433
            ],
            [
              89.2179063,
              21.4311154
            ],
            [
              89.2276798,
              21.4295876
            ],
            [
              89.2374532,
              21.4280597
            ],
            [
              89.2472267,
              21.4265318
            ],
            [
              89.2570002,
              21.425004
            ],
            [
              89.2667736,
              21.4234761
            ],
            [
              89.2765471,
              21.4219482
            ],
            [
              89.2863206,
              21.4204203
            ],
            [
              89.296094,
              21.4188925
            ],
            [
              89.3058675,
              21.4173646
            ],
            [
              89.3156409,
              21.4158367
            ],
            [
              89.3254144,
              21.4143089
            ],
            [
              89.335181,
              21.4127821
            ],
            [
              89.3439717,
              21.411582
            ],
            [
              89.3176244,
              21.6504996
            ],
            [
              89.308031,
              21.7409389
            ],
            [
              89.3248556,
              21.7502526
            ],
            [
              89.3279192,
              21.7536154
            ],
            [
              89.3380736,
              21.764761
            ],
            [
              89.3430948,
              21.7892304
            ],
            [
              89.3436956,
              21.8077193
            ],
            [
              89.3483305,
              21.8199111
            ],
            [
              89.3569563,
              21.8388741
            ],
            [
              89.3681143,
              21.8669156
            ],
            [
              89.3724153,
              21.8812548
            ],
            [
              89.3727492,
              21.8823678
            ],
            [
              89.3691444,
              21.9076932
            ],
            [
              89.3662823,
              21.9196419
            ],
            [
              89.3655395,
              21.9227429
            ],
            [
              89.3560806,
              21.9401714
            ],
            [
              89.3467425,
              21.9573752
            ],
            [
              89.3290614,
              21.9826872
            ],
            [
              89.3081187,
              22.0129284
            ],
            [
              89.3022661,
              22.0235826
            ],
            [
              89.2939567,
              22.0387079
            ],
            [
              89.2844724,
              22.055812
            ],
            [
              89.284687,
              22.0603463
            ],
            [
              89.286704,
              22.0643236
            ],
            [
              89.2927551,
              22.0743061
            ],
            [
              89.296832,
              22.0802316
            ],
            [
              89.2988061,
              22.086316
            ],
            [
              89.298892,
              22.0892586
            ],
            [
              89.2975616,
              22.0915252
            ],
            [
              89.2946004,
              22.0927182
            ],
            [
              89.2913818,
              22.0930363
            ],
            [
              89.2858028,
              22.0916445
            ],
            [
              89.2788505,
              22.0891791
            ],
            [
              89.2706966,
              22.0857592
            ],
            [
              89.2648172,
              22.0852423
            ],
            [
              89.2596674,
              22.0896165
            ],
            [
              89.2575645,
              22.0928772
            ],
            [
              89.2573793,
              22.0939411
            ],
            [
              89.2569208,
              22.0965753
            ],
            [
              89.2577362,
              22.0998358
            ],
            [
              89.2612123,
              22.1052434
            ],
            [
              89.2703104,
              22.1167338
            ],
            [
              89.2727994,
              22.1267523
            ],
            [
              89.2763185,
              22.1396323
            ],
            [
              89.2817688,
              22.1515571
            ],
            [
              89.2851162,
              22.1560486
            ],
            [
              89.2908239,
              22.1593475
            ],
            [
              89.3045997,
              22.1672566
            ],
            [
              89.3131828,
              22.1737744
            ],
            [
              89.3172168,
              22.1812456
            ],
            [
              89.3172568,
              22.188318
            ],
            [
              89.3172597,
              22.1888356
            ],
            [
              89.3168306,
              22.1937232
            ],
            [
              89.315629,
              22.2010344
            ],
            [
              89.3137836,
              22.2051666
            ],
            [
              89.3091273,
              22.2116826
            ],
            [
              89.3072605,
              22.2144439
            ],
            [
              89.3052006,
              22.2165694
            ],
            [
              89.3039345,
              22.2172448
            ],
            [
              89.3074751,
              22.221019
            ],
            [
              89.3113804,
              22.2283685
            ],
            [
              89.3114018,
              22.2310897
            ],
            [
              89.3098354,
              22.2356183
            ],
            [
              89.3071317,
              22.2381805
            ],
            [
              89.2980766,
              22.2460058
            ],
            [
              89.2916822,
              22.2509509
            ],
            [
              89.291017,
              22.2557172
            ],
            [
              89.2919826,
              22.2579613
            ],
            [
              89.2956733,
              22.2641572
            ],
            [
              89.3163585,
              22.2732121
            ],
            [
              89.3175601,
              22.2813134
            ],
            [
              89.3175173,
              22.2831201
            ],
            [
              89.3170023,
              22.2844504
            ],
            [
              89.316144,
              22.2854829
            ],
            [
              89.3147278,
              22.2862374
            ],
            [
              89.3132043,
              22.2867933
            ],
            [
              89.3089556,
              22.2874485
            ],
            [
              89.3057799,
              22.2876868
            ],
            [
              89.3020859,
              22.2875671
            ],
            [
              89.2970681,
              22.2859693
            ],
            [
              89.2936885,
              22.2851553
            ],
            [
              89.2908454,
              22.2845199
            ],
            [
              89.2884421,
              22.2841625
            ],
            [
              89.2868864,
              22.2840136
            ],
            [
              89.2860174,
              22.2840831
            ],
            [
              89.285202,
              22.2843511
            ],
            [
              89.2845261,
              22.2846589
            ],
            [
              89.2835712,
              22.2852843
            ],
            [
              89.2827022,
              22.2858502
            ],
            [
              89.2820692,
              22.2864955
            ],
            [
              89.28164,
              22.2870911
            ],
            [
              89.2812753,
              22.2880044
            ],
            [
              89.2809963,
              22.2889972
            ],
            [
              89.2806852,
              22.2905656
            ],
            [
              89.2805032,
              22.2917752
            ],
            [
              89.280374,
              22.2926206
            ],
            [
              89.280256,
              22.2938813
            ],
            [
              89.2802131,
              22.2958964
            ],
            [
              89.2802346,
              22.2970578
            ],
            [
              89.2802667,
              22.2982292
            ],
            [
              89.2802131,
              22.2993906
            ],
            [
              89.2801273,
              22.3004725
            ],
            [
              89.2799663,
              22.3015148
            ],
            [
              89.279741,
              22.3028151
            ],
            [
              89.2794299,
              22.3040063
            ],
            [
              89.2790007,
              22.3052768
            ],
            [
              89.2785716,
              22.3064084
            ],
            [
              89.2779922,
              22.3076094
            ],
            [
              89.2776167,
              22.3082546
            ],
            [
              89.2769945,
              22.3091678
            ],
            [
              89.276061,
              22.3101802
            ],
            [
              89.2747306,
              22.3115698
            ],
            [
              89.273529,
              22.31288
            ],
            [
              89.2724669,
              22.3141008
            ],
            [
              89.2715442,
              22.3151827
            ],
            [
              89.2706001,
              22.3164233
            ],
            [
              89.2698169,
              22.3173662
            ],
            [
              89.2691839,
              22.3179518
            ],
            [
              89.268347,
              22.318726
            ],
            [
              89.2670381,
              22.3199567
            ],
            [
              89.2655146,
              22.321366
            ],
            [
              89.2642808,
              22.3225868
            ],
            [
              89.2628431,
              22.3238274
            ],
            [
              89.2616844,
              22.3247603
            ],
            [
              89.2603433,
              22.3257925
            ],
            [
              89.2590236,
              22.3267353
            ],
            [
              89.2582297,
              22.3274102
            ],
            [
              89.2574894,
              22.3282537
            ],
            [
              89.2564595,
              22.3294844
            ],
            [
              89.2552578,
              22.3311119
            ],
            [
              89.2539811,
              22.3331166
            ],
            [
              89.252404,
              22.3354785
            ],
            [
              89.2517602,
              22.3367091
            ],
            [
              89.2514169,
              22.3376915
            ],
            [
              89.2511165,
              22.3387633
            ],
            [
              89.2509019,
              22.3397457
            ],
            [
              89.2508268,
              22.3409862
            ],
            [
              89.2508697,
              22.3427724
            ],
            [
              89.2509448,
              22.343993
            ],
            [
              89.2511165,
              22.3449853
            ],
            [
              89.2514813,
              22.3457891
            ],
            [
              89.2520284,
              22.3464242
            ],
            [
              89.2530906,
              22.3470592
            ],
            [
              89.2544424,
              22.3475653
            ],
            [
              89.2516022,
              22.3514156
            ],
            [
              89.2494965,
              22.3529587
            ],
            [
              89.2454071,
              22.356041
            ],
            [
              89.2418213,
              22.3594551
            ],
            [
              89.2367554,
              22.3647404
            ],
            [
              89.2337875,
              22.3686028
            ],
            [
              89.2302704,
              22.3723011
            ],
            [
              89.2253265,
              22.3754597
            ],
            [
              89.2209549,
              22.3744717
            ],
            [
              89.2184448,
              22.3753872
            ],
            [
              89.2033157,
              22.3724575
            ],
            [
              89.1967392,
              22.3720894
            ],
            [
              89.1950302,
              22.3748283
            ],
            [
              89.1953506,
              22.3795891
            ],
            [
              89.1953964,
              22.3856201
            ],
            [
              89.1940079,
              22.3911095
            ],
            [
              89.1909027,
              22.3964081
            ],
            [
              89.1911011,
              22.3980484
            ],
            [
              89.1848373,
              22.3980331
            ],
            [
              89.1836014,
              22.3987942
            ],
            [
              89.1810303,
              22.4005356
            ],
            [
              89.1799774,
              22.4011536
            ],
            [
              89.1735535,
              22.4044418
            ],
            [
              89.1709061,
              22.4041519
            ],
            [
              89.1697998,
              22.4040318
            ],
            [
              89.161438,
              22.4035854
            ],
            [
              89.1650772,
              22.4019318
            ],
            [
              89.165329,
              22.399971
            ],
            [
              89.1635818,
              22.3967361
            ],
            [
              89.1618576,
              22.3944759
            ],
            [
              89.1593246,
              22.393959
            ],
            [
              89.1548157,
              22.3952103
            ],
            [
              89.1520004,
              22.3956165
            ],
            [
              89.1482697,
              22.3938046
            ],
            [
              89.1462097,
              22.3905182
            ],
            [
              89.1439514,
              22.3864326
            ],
            [
              89.1432419,
              22.3830013
            ],
            [
              89.1434555,
              22.379549
            ],
            [
              89.1426849,
              22.3761196
            ],
            [
              89.1419296,
              22.3731499
            ],
            [
              89.1404419,
              22.3704834
            ],
            [
              89.137825,
              22.3690472
            ],
            [
              89.1359711,
              22.3686295
            ],
            [
              89.133316,
              22.3681698
            ],
            [
              89.1285477,
              22.3689651
            ],
            [
              89.1245804,
              22.3696861
            ],
            [
              89.1209869,
              22.3707428
            ],
            [
              89.1171722,
              22.3728371
            ],
            [
              89.1155396,
              22.3760338
            ],
            [
              89.1143799,
              22.3787003
            ],
            [
              89.1120834,
              22.3823147
            ],
            [
              89.1102142,
              22.3857441
            ],
            [
              89.1091766,
              22.3881226
            ],
            [
              89.1067429,
              22.3913364
            ],
            [
              89.1043015,
              22.3930397
            ],
            [
              89.1027527,
              22.393549
            ],
            [
              89.1020737,
              22.395977
            ],
            [
              89.1004639,
              22.3977375
            ],
            [
              89.0998535,
              22.4001064
            ],
            [
              89.0995483,
              22.4022942
            ],
            [
              89.0995407,
              22.4043636
            ],
            [
              89.0985107,
              22.404789
            ],
            [
              89.0971756,
              22.4053345
            ],
            [
              89.0968704,
              22.4033298
            ],
            [
              89.0966873,
              22.4011517
            ],
            [
              89.0966415,
              22.3991985
            ],
            [
              89.0951614,
              22.3967609
            ],
            [
              89.0937347,
              22.3941498
            ],
            [
              89.0914917,
              22.3928204
            ],
            [
              89.0889816,
              22.3931637
            ],
            [
              89.0881729,
              22.3949623
            ],
            [
              89.0871811,
              22.396822
            ],
            [
              89.0859375,
              22.3979397
            ],
            [
              89.0848999,
              22.3988819
            ],
            [
              89.082489,
              22.3984756
            ],
            [
              89.0806274,
              22.3973141
            ],
            [
              89.0799942,
              22.3969212
            ],
            [
              89.0790482,
              22.39608
            ],
            [
              89.077095,
              22.3964672
            ],
            [
              89.0745621,
              22.3980732
            ],
            [
              89.0724945,
              22.3989811
            ],
            [
              89.0689468,
              22.3995743
            ],
            [
              89.0665283,
              22.3985939
            ],
            [
              89.065567,
              22.3974705
            ],
            [
              89.0651321,
              22.3969574
            ],
            [
              89.0644989,
              22.3962822
            ],
            [
              89.0655975,
              22.3937874
            ],
            [
              89.0661926,
              22.3906727
            ],
            [
              89.0659561,
              22.3887253
            ],
            [
              89.065155,
              22.3863297
            ],
            [
              89.0666199,
              22.3860683
            ],
            [
              89.0674133,
              22.385994
            ],
            [
              89.0679398,
              22.385006
            ],
            [
              89.0667801,
              22.3828468
            ],
            [
              89.0651779,
              22.3803558
            ],
            [
              89.0647507,
              22.3782387
            ],
            [
              89.0645752,
              22.3762894
            ],
            [
              89.0657578,
              22.3745975
            ],
            [
              89.0671692,
              22.3743362
            ],
            [
              89.0685959,
              22.3751678
            ],
            [
              89.0704651,
              22.3761597
            ],
            [
              89.0714417,
              22.3756218
            ],
            [
              89.0714035,
              22.3742447
            ],
            [
              89.0686188,
              22.3712597
            ],
            [
              89.0674438,
              22.3687572
            ],
            [
              89.0673981,
              22.366806
            ],
            [
              89.0652466,
              22.3646698
            ],
            [
              89.0630569,
              22.3608112
            ],
            [
              89.0626297,
              22.3585796
            ],
            [
              89.0615387,
              22.3567657
            ],
            [
              89.0618362,
              22.354002
            ],
            [
              89.0633392,
              22.3507519
            ],
            [
              89.0648193,
              22.3487091
            ],
            [
              89.0662384,
              22.3466091
            ],
            [
              89.0689392,
              22.3441372
            ],
            [
              89.0714798,
              22.342762
            ],
            [
              89.0726547,
              22.3409557
            ],
            [
              89.0727234,
              22.3387699
            ],
            [
              89.0711975,
              22.3367367
            ],
            [
              89.0682526,
              22.3368568
            ],
            [
              89.0672607,
              22.3390045
            ],
            [
              89.066452,
              22.3406887
            ],
            [
              89.0654755,
              22.3434086
            ],
            [
              89.0614166,
              22.3429813
            ],
            [
              89.0596619,
              22.343996
            ],
            [
              89.0586014,
              22.3457413
            ],
            [
              89.0570221,
              22.3462353
            ],
            [
              89.0533829,
              22.3456249
            ],
            [
              89.0504532,
              22.3440228
            ],
            [
              89.0476608,
              22.3427048
            ],
            [
              89.0448303,
              22.3424778
            ],
            [
              89.0424347,
              22.341774
            ],
            [
              89.0384979,
              22.3400288
            ],
            [
              89.0368729,
              22.3412132
            ],
            [
              89.0351181,
              22.3444691
            ],
            [
              89.0335159,
              22.3466854
            ],
            [
              89.0313187,
              22.346962
            ],
            [
              89.0288467,
              22.3464413
            ],
            [
              89.026947,
              22.3442421
            ],
            [
              89.0257339,
              22.3402462
            ],
            [
              89.0244904,
              22.3372288
            ],
            [
              89.02108,
              22.3359241
            ],
            [
              89.0184631,
              22.3343716
            ],
            [
              89.0158234,
              22.3320732
            ],
            [
              89.0140152,
              22.3288364
            ],
            [
              89.011116,
              22.3258553
            ],
            [
              89.0108032,
              22.3244476
            ],
            [
              89.0064148,
              22.3181731
            ]
          ]
        ]
      },
      "id": "relation/5295537"
    },
    {
      "type": "Feature",
      "properties": {
        "@id": "relation/16500093",
        "admin_level": "9",
        "boundary": "administrative",
        "name": "Shyamnagar",
        "type": "boundary"
      },
      "geometry": {
        "type": "Polygon",
        "coordinates": [
          [
            [
              80.696291,
              24.5164737
            ],
            [
              80.6947723,
              24.5167507
            ],
            [
              80.6926164,
              24.5171489
            ],
            [
              80.691092,
              24.5175333
            ],
            [
              80.6895282,
              24.5181208
            ],
            [
              80.6873825,
              24.5191148
            ],
            [
              80.6866426,
              24.5194672
            ],
            [
              80.6828589,
              24.5208591
            ],
            [
              80.6823984,
              24.5210286
            ],
            [
              80.6816798,
              24.5212297
            ],
            [
              80.6816596,
              24.5212371
            ],
            [
              80.6816551,
              24.5212388
            ],
            [
              80.6816945,
              24.521004
            ],
            [
              80.6817437,
              24.520715
            ],
            [
              80.6818028,
              24.5204938
            ],
            [
              80.6817978,
              24.5203809
            ],
            [
              80.6817189,
              24.5202997
            ],
            [
              80.6816399,
              24.5202321
            ],
            [
              80.6814375,
              24.5201509
            ],
            [
              80.6809342,
              24.5199615
            ],
            [
              80.6807811,
              24.5198261
            ],
            [
              80.680643,
              24.519614
            ],
            [
              80.6805836,
              24.5193658
            ],
            [
              80.6804848,
              24.518946
            ],
            [
              80.6803267,
              24.5187113
            ],
            [
              80.6801737,
              24.5185354
            ],
            [
              80.6798875,
              24.5183323
            ],
            [
              80.6795518,
              24.5180616
            ],
            [
              80.6794828,
              24.5179984
            ],
            [
              80.6794284,
              24.5179443
            ],
            [
              80.679379,
              24.517872
            ],
            [
              80.6793594,
              24.5178224
            ],
            [
              80.6793396,
              24.5177592
            ],
            [
              80.6793246,
              24.517538
            ],
            [
              80.6792949,
              24.5172852
            ],
            [
              80.6792702,
              24.5170144
            ],
            [
              80.6792948,
              24.5169151
            ],
            [
              80.6792504,
              24.5168474
            ],
            [
              80.6790974,
              24.5167933
            ],
            [
              80.6788754,
              24.5167437
            ],
            [
              80.6787273,
              24.516676
            ],
            [
              80.6785793,
              24.5165858
            ],
            [
              80.6784805,
              24.5164414
            ],
            [
              80.6783718,
              24.5162383
            ],
            [
              80.6782928,
              24.5160081
            ],
            [
              80.67812,
              24.5158096
            ],
            [
              80.677898,
              24.5157059
            ],
            [
              80.6778091,
              24.5157104
            ],
            [
              80.6777451,
              24.5157375
            ],
            [
              80.6776711,
              24.5158278
            ],
            [
              80.6775922,
              24.5159407
            ],
            [
              80.6775379,
              24.516031
            ],
            [
              80.6774393,
              24.5160897
            ],
            [
              80.6773308,
              24.5161213
            ],
            [
              80.677163,
              24.5161214
            ],
            [
              80.6769558,
              24.5161124
            ],
            [
              80.6768324,
              24.5160989
            ],
            [
              80.6767831,
              24.5160403
            ],
            [
              80.6767386,
              24.5159816
            ],
            [
              80.6767288,
              24.5158913
            ],
            [
              80.676709,
              24.5158055
            ],
            [
              80.6766744,
              24.5157063
            ],
            [
              80.6766004,
              24.5156476
            ],
            [
              80.676556,
              24.5156205
            ],
            [
              80.6774932,
              24.5153449
            ],
            [
              80.6779224,
              24.5152679
            ],
            [
              80.6776655,
              24.5143697
            ],
            [
              80.6775025,
              24.5139364
            ],
            [
              80.677058,
              24.5127133
            ],
            [
              80.6769247,
              24.5123973
            ],
            [
              80.6762037,
              24.5108854
            ],
            [
              80.6759862,
              24.5097795
            ],
            [
              80.6758132,
              24.5091566
            ],
            [
              80.6756698,
              24.5083035
            ],
            [
              80.676005,
              24.5075992
            ],
            [
              80.6761331,
              24.5071793
            ],
            [
              80.6758714,
              24.5068093
            ],
            [
              80.6753828,
              24.5060691
            ],
            [
              80.6751212,
              24.5057803
            ],
            [
              80.6748644,
              24.5050446
            ],
            [
              80.6744892,
              24.5045934
            ],
            [
              80.6742276,
              24.5039118
            ],
            [
              80.6739412,
              24.5035147
            ],
            [
              80.6739508,
              24.502666
            ],
            [
              80.6738667,
              24.5022237
            ],
            [
              80.6736938,
              24.5014743
            ],
            [
              80.6736887,
              24.5010726
            ],
            [
              80.6709815,
              24.5004646
            ],
            [
              80.6709667,
              24.4995052
            ],
            [
              80.6718425,
              24.4980631
            ],
            [
              80.6750779,
              24.4962067
            ],
            [
              80.6774254,
              24.4948337
            ],
            [
              80.6781159,
              24.4943865
            ],
            [
              80.6791662,
              24.4934247
            ],
            [
              80.6798468,
              24.4930542
            ],
            [
              80.6812623,
              24.4926835
            ],
            [
              80.6832451,
              24.4920147
            ],
            [
              80.6849818,
              24.4916178
            ],
            [
              80.6848926,
              24.4917702
            ],
            [
              80.684873,
              24.4920862
            ],
            [
              80.684814,
              24.4925648
            ],
            [
              80.6848931,
              24.4928582
            ],
            [
              80.6849179,
              24.493138
            ],
            [
              80.6847948,
              24.4934902
            ],
            [
              80.6847948,
              24.4937114
            ],
            [
              80.6849578,
              24.4941221
            ],
            [
              80.6851999,
              24.4948984
            ],
            [
              80.6850769,
              24.4954401
            ],
            [
              80.6856248,
              24.4961893
            ],
            [
              80.6860692,
              24.4970964
            ],
            [
              80.6863756,
              24.4980624
            ],
            [
              80.6867164,
              24.4989334
            ],
            [
              80.686781,
              24.4998994
            ],
            [
              80.6871091,
              24.5004589
            ],
            [
              80.6881234,
              24.5010943
            ],
            [
              80.6884492,
              24.501347
            ],
            [
              80.6888735,
              24.5016493
            ],
            [
              80.6892634,
              24.5020147
            ],
            [
              80.689683,
              24.5023847
            ],
            [
              80.6900186,
              24.5027186
            ],
            [
              80.6902901,
              24.5030525
            ],
            [
              80.6906653,
              24.5035895
            ],
            [
              80.6910998,
              24.5042529
            ],
            [
              80.6915442,
              24.5049253
            ],
            [
              80.6920083,
              24.5055842
            ],
            [
              80.6922155,
              24.5058097
            ],
            [
              80.6925019,
              24.5060398
            ],
            [
              80.6926648,
              24.5061887
            ],
            [
              80.6929165,
              24.5065091
            ],
            [
              80.6929956,
              24.5066445
            ],
            [
              80.6931288,
              24.5068386
            ],
            [
              80.6934744,
              24.507222
            ],
            [
              80.6940272,
              24.5078358
            ],
            [
              80.6941359,
              24.5079621
            ],
            [
              80.6942001,
              24.5080885
            ],
            [
              80.6942396,
              24.5081787
            ],
            [
              80.6943238,
              24.508612
            ],
            [
              80.6945017,
              24.5091898
            ],
            [
              80.6945905,
              24.5094019
            ],
            [
              80.6948622,
              24.5099751
            ],
            [
              80.694966,
              24.5101826
            ],
            [
              80.6951488,
              24.5106023
            ],
            [
              80.6952525,
              24.5108776
            ],
            [
              80.6954452,
              24.5114057
            ],
            [
              80.695539,
              24.5115772
            ],
            [
              80.6957316,
              24.5117938
            ],
            [
              80.6960426,
              24.5120599
            ],
            [
              80.6961808,
              24.5122179
            ],
            [
              80.6963882,
              24.5125112
            ],
            [
              80.6964869,
              24.5126827
            ],
            [
              80.6965512,
              24.5128497
            ],
            [
              80.6965957,
              24.5131295
            ],
            [
              80.69666,
              24.5133868
            ],
            [
              80.6966899,
              24.5137389
            ],
            [
              80.6966753,
              24.5142671
            ],
            [
              80.6965719,
              24.5146553
            ],
            [
              80.6964143,
              24.5150706
            ],
            [
              80.6963355,
              24.5152738
            ],
            [
              80.6962863,
              24.5156079
            ],
            [
              80.6962421,
              24.5160458
            ],
            [
              80.6962719,
              24.5163437
            ],
            [
              80.6962911,
              24.5164736
            ],
            [
              80.696291,
              24.5164737
            ]
          ]
        ]
      },
      "id": "relation/16500093"
    }
  ]
}